IRIDIUM 33              
1 24946U 97051C   25328.71636367  .00000432  00000+0  14503-3 0  9990
2 24946  86.3867  75.7859 0005784 274.3320  85.7215 14.35017590475763
IRIDIUM 33 DEB          
1 33773U 97051L   25328.68827498  .00001344  00000+0  39397-3 0  9992
2 33773  86.4012  68.2370 0010508 203.7072 156.3646 14.43195723880878
IRIDIUM 33 DEB          
1 33775U 97051N   25328.74463410  .00001340  00000+0  40733-3 0  9993
2 33775  86.3645  57.2338 0012243 213.9052 277.9362 14.41407874878819
IRIDIUM 33 DEB          
1 33776U 97051P   25328.80323074  .00001064  00000+0  34399-3 0  9996
2 33776  86.4028  88.3074 0012684 254.0078 259.6405 14.38183464878245
IRIDIUM 33 DEB          
1 33777U 97051Q   25328.68369992  .00004452  00000+0  10205-2 0  9995
2 33777  86.3797  43.0540 0005777 331.2057  28.8830 14.55406403882719
IRIDIUM 33 DEB          
1 33850U 97051T   25328.68738243  .00001834  00000+0  55220-3 0  9994
2 33850  86.3428  37.9397 0010257 219.8914 271.9968 14.42079162878921
IRIDIUM 33 DEB          
1 33853U 97051W   25328.56047713  .00003490  00000+0  20065-2 0  9997
2 33853  86.0001 357.7819 0207018 292.0079 223.8383 13.98883883850917
IRIDIUM 33 DEB          
1 33859U 97051AC  25328.60478534  .02177916  00000+0  14007-1 0  9992
2 33859  86.2985   6.9686 0002345 327.0159  33.0966 15.73022857882919
IRIDIUM 33 DEB          
1 33860U 97051AD  25328.67262740  .00007897  00000+0  14042-2 0  9999
2 33860  86.3848  35.2304 0009459  54.8620 106.3492 14.67009166884575
IRIDIUM 33 DEB          
1 33862U 97051AF  25328.68487824  .00009386  00000+0  15602-2 0  9992
2 33862  86.4095  45.4867 0054277 129.3115 357.9943 14.69030317885585
IRIDIUM 33 DEB          
1 33866U 97051AK  25328.45578306  .00001537  00000+0  60525-3 0  9992
2 33866  86.2994 100.7704 0112768 219.8765 214.8500 14.25182854865502
IRIDIUM 33 DEB          
1 33867U 97051AL  25328.61421544  .00353385  00000+0  66828-2 0  9994
2 33867  86.3624 359.3513 0011635 123.7917 236.4450 15.47058075892299
IRIDIUM 33 DEB          
1 33870U 97051AP  25328.70671134  .00003292  00000+0  92292-3 0  9994
2 33870  86.3748  65.9875 0019642 239.5071 248.7901 14.45697259878767
IRIDIUM 33 DEB          
1 33881U 97051BA  25327.89996885  .00007278  00000+0  16055-2 0  9998
2 33881  86.3882 114.9238 0060068 236.1740 249.9417 14.56117574872263
IRIDIUM 33 DEB          
1 33884U 97051BD  25328.50012943  .00009369  00000+0  13260-2 0  9992
2 33884  86.3696  18.0484 0011701  28.4689  21.7340 14.76945038885788
IRIDIUM 33 DEB          
1 33886U 97051BF  25328.70617814  .00000724  00000+0  24248-3 0  9999
2 33886  86.3828  74.8180 0012300 310.5114 186.8507 14.36018611877934
IRIDIUM 33 DEB          
1 33887U 97051BG  25328.16252015  .00000470  00000+0  15130-3 0  9996
2 33887  86.3062  11.3964 0004430 315.4649 110.9309 14.37197060878984
IRIDIUM 33 DEB          
1 33953U 97051BN  25328.54683730  .00006142  00000+0  14176-2 0  9994
2 33953  86.3845  61.6728 0018159 158.1355 215.9095 14.55038489880397
IRIDIUM 33 DEB          
1 33960U 97051BV  25328.42269258  .00026040  00000+0  31296-2 0  9995
2 33960  86.2534 298.1396 0006346  89.5851  30.7585 14.83829371885953
IRIDIUM 33 DEB          
1 33966U 97051CB  25328.75027031  .00002442  00000+0  63268-3 0  9993
2 33966  86.3930  53.7448 0005682 258.0108 231.9842 14.49478577881815
IRIDIUM 33 DEB          
1 34071U 97051CE  25328.71100935  .00002469  00000+0  64133-3 0  9993
2 34071  86.3468  25.6622 0008781 157.2734 202.8861 14.49345443880732
IRIDIUM 33 DEB          
1 34077U 97051CL  25328.74639301  .00010898  00000+0  20549-2 0  9993
2 34077  86.3863  59.4286 0011571  94.9615  28.5884 14.64389154880691
IRIDIUM 33 DEB          
1 34079U 97051CN  25328.15016274  .00013376  00000+0  16468-2 0  9997
2 34079  86.3780  17.1107 0007533  62.7309 350.7895 14.82856763887021
IRIDIUM 33 DEB          
1 34088U 97051CX  25328.70910404  .00028659  00000+0  29542-2 0  9993
2 34088  86.3855  38.9982 0004582 246.2877 232.2864 14.90094636884733
IRIDIUM 33 DEB          
1 34091U 97051DA  25328.32805990  .00038881  00000+0  50937-2 0  9998
2 34091  86.3422  75.2510 0032853   0.6372 359.4885 14.79796553875944
IRIDIUM 33 DEB          
1 34097U 97051DG  25328.59612994  .00003456  00000+0  11690-2 0  9996
2 34097  86.2012   9.4138 0084536  60.7874 300.1743 14.34585784868590
IRIDIUM 33 DEB          
1 34145U 97051DY  25328.22235341  .00003099  00000+0  92018-3 0  9994
2 34145  86.2121 340.7730 0054554 153.0689 207.3362 14.42113181873713
IRIDIUM 33 DEB          
1 34146U 97051DZ  25328.54540181  .00003655  00000+0  95820-3 0  9993
2 34146  86.2842 357.8361 0024927 287.1147 225.1302 14.48864557878434
IRIDIUM 33 DEB          
1 34159U 97051EN  25328.71674213  .00001394  00000+0  44911-3 0  9993
2 34159  86.3512  55.9232 0027267 350.3059   9.7609 14.38426475877001
IRIDIUM 33 DEB          
1 34350U 97051ES  25328.62174044  .00001220  00000+0  34110-3 0  9991
2 34350  86.3292  10.6675 0020842 193.5875 334.4183 14.45327119880319
IRIDIUM 33 DEB          
1 34366U 97051FJ  25328.72691211  .00005822  00000+0  13786-2 0  9996
2 34366  86.3704  57.1433 0020863 198.5146 289.4026 14.53801178879203
IRIDIUM 33 DEB          
1 34375U 97051FT  25328.62568281  .00000942  00000+0  42937-3 0  9994
2 34375  86.4338 189.9947 0101566 184.0071 231.0051 14.17946669864556
IRIDIUM 33 DEB          
1 34376U 97051FU  25328.54655895  .00007925  00000+0  15628-2 0  9998
2 34376  86.2997  14.7147 0025200 229.9953 129.9047 14.62190842877414
IRIDIUM 33 DEB          
1 34486U 97051GB  25328.66092122  .00025624  00000+0  23554-2 0  9994
2 34486  86.3945  20.3594 0012138 172.6329 313.5405 14.94621418887161
IRIDIUM 33 DEB          
1 34487U 97051GC  25328.12748328  .00000754  00000+0  21736-3 0  9990
2 34487  86.3454  20.3887 0030809 188.3192 201.3579 14.43179710879804
IRIDIUM 33 DEB          
1 34488U 97051GD  25328.15753381  .00102617  00000+0  41897-2 0  9999
2 34488  86.3257 314.9723 0016472  85.0395 275.2730 15.23852480889569
IRIDIUM 33 DEB          
1 34492U 97051GH  25328.01638109  .00020773  00000+0  73383-2 0  9996
2 34492  86.4713 342.1909 0190862 298.8187  88.3319 14.24881669847921
IRIDIUM 33 DEB          
1 34497U 97051GN  25328.71879250  .00001696  00000+0  66110-3 0  9996
2 34497  86.2782  60.0976 0080764  37.7755  92.7355 14.27375004866261
IRIDIUM 33 DEB          
1 34508U 97051GZ  25328.38167536  .00005241  00000+0  16802-2 0  9991
2 34508  86.3704 110.4242 0064650 232.9047 126.6232 14.38167234870457
IRIDIUM 33 DEB          
1 34521U 97051HN  25328.66077163  .00005517  00000+0  10696-2 0  9994
2 34521  86.3812  38.5032 0001887 352.6001   7.5183 14.63120759882085
IRIDIUM 33 DEB          
1 34525U 97051HS  25328.74229177  .00001496  00000+0  44274-3 0  9993
2 34525  86.3737  54.5232 0006023 136.9459 349.0900 14.42836563878284
IRIDIUM 33 DEB          
1 34529U 97051HW  25328.71000995  .00000479  00000+0  14427-3 0  9996
2 34529  86.3655  43.0957 0002968 252.8434 107.2440 14.40594276878822
IRIDIUM 33 DEB          
1 34538U 97051JF  25328.58706506  .00002985  00000+0  88890-3 0  9991
2 34538  86.2787  13.5041 0035069  28.1799 123.7043 14.42495670874940
IRIDIUM 33 DEB          
1 34540U 97051JH  25328.43245461  .00010685  00000+0  15909-2 0  9992
2 34540  86.3101 315.9736 0013886 229.0106 282.9201 14.74758348887511
IRIDIUM 33 DEB          
1 34648U 97051JZ  25327.89858721  .00015025  00000+0  71235-2 0  9996
2 34648  86.3918 289.5449 0187959 356.8485   3.1496 14.10632720846952
IRIDIUM 33 DEB          
1 34651U 97051KC  25328.78129285  .00007588  00000+0  28887-2 0  9995
2 34651  86.2826 148.2118 0141781 261.3208  97.1901 14.25407411856401
IRIDIUM 33 DEB          
1 34652U 97051KD  25327.10751844  .00003968  00000+0  78641-3 0  9995
2 34652  86.3320 348.7410 0028110   7.6287  53.6800 14.61798536881978
IRIDIUM 33 DEB          
1 34690U 97051KM  25328.20935021  .00002115  00000+0  48613-3 0  9999
2 34690  86.3791  45.0429 0012253  83.1349 334.1672 14.54989726878254
IRIDIUM 33 DEB          
1 34693U 97051KQ  25328.47191595  .00105282  00000+0  44685-2 0  9994
2 34693  86.3075 312.8572 0016569  85.9930  43.8131 15.22525561886360
IRIDIUM 33 DEB          
1 34696U 97051KT  25328.23237920  .00033146  00000+0  61076-2 0  9996
2 34696  86.1857  36.1196 0075255 230.0259 190.5325 14.63545233864027
IRIDIUM 33 DEB          
1 34765U 97051LJ  25328.49404867  .00001486  00000+0  46170-3 0  9998
2 34765  86.3406  40.5888 0014328 278.1215  96.6173 14.40392656873517
IRIDIUM 33 DEB          
1 34775U 97051LU  25315.68264015  .00838214  00000+0  13456-1 0  9991
2 34775  86.3111  32.5566 0015965 269.6495  90.2935 15.50426089879116
IRIDIUM 33 DEB          
1 34833U 97051MH  25328.28589313  .00003830  00000+0  93680-3 0  9994
2 34833  86.3945  58.9448 0020996 155.5939 259.3523 14.52199682874475
IRIDIUM 33 DEB          
1 34870U 97051MQ  25328.73813748  .00011121  00000+0  16123-2 0  9995
2 34870  86.3108 322.3274 0014484 254.2796 231.5380 14.75899712886455
IRIDIUM 33 DEB          
1 34896U 97051MY  25328.36149487  .00005214  00000+0  94382-3 0  9994
2 34896  86.3290 334.9277 0023868 283.0314 145.4182 14.66002151873507
IRIDIUM 33 DEB          
1 34926U 97051NF  25328.61832821  .00019215  00000+0  44333-2 0  9993
2 34926  86.1317  16.6652 0077817 354.5187 158.1087 14.53306487861939
IRIDIUM 33 DEB          
1 34928U 97051NH  25319.35237483  .01570934  00000+0  84401-2 0  9990
2 34928  86.3522 344.3838 0002618 103.7619 256.3947 15.77695235658624
IRIDIUM 33 DEB          
1 34985U 97051NR  25328.28755476  .00002486  00000+0  75246-3 0  9991
2 34985  86.3703  64.7493 0019587 285.1951 129.0606 14.41885954869097
IRIDIUM 33 DEB          
1 35051U 97051NX  25327.11693301  .00002126  00000+0  57347-3 0  9998
2 35051  86.3258  17.4127 0009858 144.7140 215.4717 14.47469932867121
IRIDIUM 33 DEB          
1 35052U 97051NY  25328.14726020  .00000650  00000+0  20650-3 0  9995
2 35052  86.3326  28.4448 0013032 137.3368 222.8844 14.38460039870086
